0 FENGYUN 1C DEB
1 37030U 99025EDN 13281.39452960  .00003474  00000-0  18952-2 0   278
2 37030 099.7248 119.3135 0043702 297.1300 062.5366 14.12368473257163
0 FENGYUN 1C DEB
1 37030U 99025EDN 13284.36984413  .00003460  00000-0  18867-2 0   282
2 37030 099.7250 122.5400 0043696 288.9356 070.7075 14.12389147257583
0 FENGYUN 1C DEB
1 37030U 99025EDN 13291.73710546  .00004144  00000-0  22475-2 0   296
2 37030 099.7144 130.5212 0047644 285.5575 074.3104 14.12459329258627
0 FENGYUN 1C DEB
1 37030U 99025EDN 13291.80788781  .00004269  00000-0  23169-2 0   301
2 37030 099.7190 130.6002 0045065 272.9949 086.7423 14.12461932258631
0 FENGYUN 1C DEB
1 37030U 99025EDN 13293.36626223  .00004404  00000-0  23907-2 0   318
2 37030 099.7250 132.3020 0042419 261.9224 097.7863 14.12477953258855
